METHANESAT              
1 59101U 24043D   25125.82347221  .00004155  00000+0  38332-3 0  9999
2 59101  97.7939 252.1199 0009356 291.5671  68.4552 14.95172383 63726
